{
    "links": {
        "self": "http://www.neowsapp.com/rest/v1/neo/3758845?api_key=iIulBulltgU6a56xZRHN4H3l9WmuAYTsLGpBGhQ2"
    },
    "id": "3758845",
    "neo_reference_id": "3758845",
    "name": "(2016 QD84)",
    "designation": "2016 QD84",
    "nasa_jpl_url": "http://ssd.jpl.nasa.gov/sbdb.cgi?sstr=3758845",
    "absolute_magnitude_h": 25.1,
    "estimated_diameter": {
        "kilometers": {
            "estimated_diameter_min": 0.0253837029,
            "estimated_diameter_max": 0.0567596853
        },
        "meters": {
            "estimated_diameter_min": 25.3837029364,
            "estimated_diameter_max": 56.7596852866
        },
        "miles": {
            "estimated_diameter_min": 0.0157726969,
            "estimated_diameter_max": 0.0352688224
        },
        "feet": {
            "estimated_diameter_min": 83.279867942,
            "estimated_diameter_max": 186.2194458756
        }
    },
    "is_potentially_hazardous_asteroid": false,
    "close_approach_data": [
        {
            "close_approach_date": "1950-06-29",
            "close_approach_date_full": "1950-Jun-29 17:25",
            "epoch_date_close_approach": -615623700000,
            "relative_velocity": {
                "kilometers_per_second": "16.9268975443",
                "kilometers_per_hour": "60936.8311596089",
                "miles_per_hour": "37863.7771169248"
            },
            "miss_distance": {
                "astronomical": "0.462564211",
                "lunar": "179.937478079",
                "kilometers": "69198620.70383057",
                "miles": "42998029.060259066"
            },
            "orbiting_body": "Earth"
        },
        {
            "close_approach_date": "2014-07-09",
            "close_approach_date_full": "2014-Jul-09 02:58",
            "epoch_date_close_approach": 1404874680000,
            "relative_velocity": {
                "kilometers_per_second": "14.4466465413",
                "kilometers_per_hour": "52007.9275486148",
                "miles_per_hour": "32315.7036481935"
            },
            "miss_distance": {
                "astronomical": "0.3789223642",
                "lunar": "147.4007996738",
                "kilometers": "56685978.579684254",
                "miles": "35223033.7756365452"
            },
            "orbiting_body": "Earth"
        },
        {
            "close_approach_date": "2016-08-30",
            "close_approach_date_full": "2016-Aug-30 16:29",
            "epoch_date_close_approach": 1472574540000,
            "relative_velocity": {
                "kilometers_per_second": "9.1985241997",
                "kilometers_per_hour": "33114.6871190807",
                "miles_per_hour": "20576.1787824088"
            },
            "miss_distance": {
                "astronomical": "0.0397998072",
                "lunar": "15.4821250008",
                "kilometers": "5953966.383530664",
                "miles": "3699623.1569206032"
            },
            "orbiting_body": "Earth"
        },
        {
            "close_approach_date": "2018-09-29",
            "close_approach_date_full": "2018-Sep-29 07:03",
            "epoch_date_close_approach": 1538204580000,
            "relative_velocity": {
                "kilometers_per_second": "18.2515480529",
                "kilometers_per_hour": "65705.5729905376",
                "miles_per_hour": "40826.8878395926"
            },
            "miss_distance": {
                "astronomical": "0.4234472137",
                "lunar": "164.7209661293",
                "kilometers": "63346801.226954819",
                "miles": "39361877.0479377422"
            },
            "orbiting_body": "Earth"
        }
    ],
    "orbital_data": {
        "orbit_id": "5",
        "orbit_determination_date": "2018-02-10 07:08:09",
        "first_observation_date": "2016-08-30",
        "last_observation_date": "2016-09-17",
        "data_arc_in_days": 18,
        "observations_used": 50,
        "orbit_uncertainty": "7",
        "minimum_orbit_intersection": ".039775",
        "jupiter_tisserand_invariant": "4.219",
        "epoch_osculation": "2459000.5",
        "eccentricity": ".3608571637401751",
        "semi_major_axis": "1.622356024748566",
        "inclination": "13.76184344780778",
        "ascending_node_longitude": "339.8340578042162",
        "orbital_period": "754.7752935551065",
        "perihelion_distance": "1.036917231081013",
        "perihelion_argument": "341.7276458645023",
        "aphelion_distance": "2.207794818416119",
        "perihelion_time": "2459126.278870730027",
        "mean_anomaly": "300.0081138724982",
        "mean_motion": ".47696314793817",
        "equinox": "J2000",
        "orbit_class": {
            "orbit_class_type": "AMO",
            "orbit_class_description": "Near-Earth asteroid orbits similar to that of 1221 Amor",
            "orbit_class_range": "1.017 AU < q (perihelion) < 1.3 AU"
        }
    },
    "is_sentry_object": false
}